STARLINK-36306          
1 68160U 26049U   26094.82418161  .00056667  00000+0  37898-3 0  9991
2 68160  97.2846 115.3792 0001050 105.4332 254.7050 15.75147231  3531
STARLINK-37057          
1 68161U 26049V   26094.83335647  .00048555  00000+0  32506-3 0  9998
2 68161  97.2854 115.4495 0001489  95.3772  96.7741 15.75153809  4825
STARLINK-37013          
1 68162U 26049W   26094.79206947  .00213406  00000+0  10869-2 0  9990
2 68162  97.2855 115.4224 0001449 102.2511 257.8920 15.80834255  3535
STARLINK-36958          
1 68163U 26049X   26094.83335647  .00134033  00000+0  88870-3 0  9992
2 68163  97.2849 115.4394 0001458 101.7421  66.3785 15.75104927  4826
STARLINK-37002          
1 68164U 26049Y   26094.79432641  .00080507  00000+0  41806-3 0  9994
2 68164  97.2857 115.4194 0001187  51.7970 308.3405 15.80769588  3537
STARLINK-36971          
1 68165U 26049Z   26094.81006574  .00063702  00000+0  42562-3 0  9998
2 68165  97.2850 115.3992 0001202 101.8923 258.2477 15.75143915  3535
STARLINK-36273          
1 68166U 26049AA  26094.82347714  .00066049  00000+0  44118-3 0  9990
2 68166  97.2847 115.3802 0001232  96.6314 263.5092 15.75142712  3536
STARLINK-36969          
1 68167U 26050A   26094.60890874  .00075340  00000+0  38159-3 0  9991
2 68167  53.1565 151.9454 0001019  86.2546 273.8593 15.80892079  4578
STARLINK-36984          
1 68168U 26050B   26094.86105500  .00398209  00000+0  19250-2 0  9997
2 68168  53.1563 150.6729 0002388  48.4267 311.6960 15.80923161  4619
STARLINK-37077          
1 68169U 26050C   26094.86030523  .00327613  00000+0  15991-2 0  9999
2 68169  53.1567 150.6684 0002089  92.8783 267.2479 15.80900920  4617
STARLINK-37003          
1 68170U 26050D   26094.85955392  .00302962  00000+0  14837-2 0  9998
2 68170  53.1565 150.6631 0001727  91.6047 268.5173 15.80896603  4614
STARLINK-37034          
1 68171U 26050E   26094.85879678  .00298793  00000+0  14634-2 0  9992
2 68171  53.1567 150.6576 0001945  76.1927 283.9312 15.80905685  4619
STARLINK-37031          
1 68172U 26050F   26094.85805462  .00310766  00000+0  15207-2 0  9995
2 68172  53.1566 150.6525 0001640  85.1502 274.9708 15.80892709  4615
STARLINK-37076          
1 68173U 26050G   26094.66763302  .00081443  00000+0  41244-3 0  9999
2 68173  53.1572 151.5976 0001654  71.7918 288.3285 15.80864050  4583
STARLINK-37078          
1 68174U 26050H   26094.85655421  .00369318  00000+0  17924-2 0  9990
2 68174  53.1566 150.6429 0002056  78.9757 281.1496 15.80914352  4617
STARLINK-36886          
1 68175U 26050J   26094.85579699  .00326254  00000+0  15914-2 0  9992
2 68175  53.1571 150.6371 0000812  55.2768 304.8331 15.80919408  4616
STARLINK-36905          
1 68176U 26050K   26094.85505348  .00406138  00000+0  19611-2 0  9991
2 68176  53.1566 150.6327 0002051  57.3434 302.7786 15.80928079  4617
STARLINK-36668          
1 68177U 26050L   26094.85438689 -.00253758  00000+0 -13552-2 0  9993
2 68177  53.1568 150.6279 0002699  38.7794 321.3422 15.80296707  4616
STARLINK-36677          
1 68178U 26050M   26094.85355364  .00400931  00000+0  19370-2 0  9991
2 68178  53.1571 150.6219 0002310  81.1481 278.9803 15.80929178  4615
STARLINK-37052          
1 68179U 26050N   26094.85279968  .00329099  00000+0  16054-2 0  9998
2 68179  53.1566 150.6172 0001755  54.4677 305.6509 15.80910269  4612
STARLINK-37035          
1 68180U 26050P   26094.85204737  .00302214  00000+0  14794-2 0  9991
2 68180  53.1567 150.6122 0001073  74.4404 285.6737 15.80906657  4619
STARLINK-37032          
1 68181U 26050Q   26094.85130020  .00305924  00000+0  14972-2 0  9994
2 68181  53.1567 150.6073 0001622  90.9632 269.1577 15.80903134  4617
STARLINK-37082          
1 68182U 26050R   26094.66088221  .00075652  00000+0  38367-3 0  9996
2 68182  53.1571 151.5522 0001597  97.3663 262.7541 15.80861267  4584
STARLINK-37102          
1 68183U 26050S   26094.66013185  .00076736  00000+0  38907-3 0  9998
2 68183  53.1569 151.5473 0001225  73.7666 286.3492 15.80861492  4583
STARLINK-36964          
1 68184U 26050T   26094.59615726  .00093861  00000+0  47341-3 0  9990
2 68184  53.1570 151.8590 0001129  69.3468 290.7676 15.80896905  4572
STARLINK-37061          
1 68185U 26050U   26094.65862748  .00134675  00000+0  67469-3 0  9998
2 68185  53.1570 151.5376 0001297 140.7937 219.3180 15.80891623  4583
STARLINK-37079          
1 68186U 26050V   26093.51993788  .00091190  00000+0  46237-3 0  9996
2 68186  53.1575 157.2358 0001136  74.7271 285.3878 15.80793272  4400
STARLINK-37006          
1 68187U 26050W   26094.65712664  .00116874  00000+0  58705-3 0  9995
2 68187  53.1568 151.5276 0001036 132.3122 227.7988 15.80896882  4586
STARLINK-36340          
1 68188U 26050X   26093.58165743  .00222666  00000+0  11038-2 0  9991
2 68188  53.1577 156.9088 0001625  70.5339 289.5859 15.80853310  4317
STARLINK-36305          
1 68189U 26050Y   26094.65562545  .00108992  00000+0  54846-3 0  9992
2 68189  53.1568 151.5178 0000980  46.5400 313.5704 15.80886576  4489
STARLINK-37071          
1 68190U 26050Z   26094.65412857  .00119954  00000+0  60278-3 0  9990
2 68190  53.1568 151.5069 0001187  94.3548 265.7610 15.80876207  4589
STARLINK-37091          
1 68191U 26050AA  26094.65337587  .00150716  00000+0  75290-3 0  9998
2 68191  53.1565 151.5018 0001046  95.4348 264.6794 15.80901252  4585
STARLINK-37098          
1 68192U 26050AB  26094.65262587  .00148386  00000+0  74143-3 0  9992
2 68192  53.1566 151.4966 0001232  80.2891 279.8271 15.80903792  4589
STARLINK-37090          
1 68193U 26050AC  26094.65112928  .00081539  00000+0  41283-3 0  9991
2 68193  53.1566 151.4857 0001870  57.4840 302.6363 15.80868312  4582
STARLINK-37093          
1 68194U 26050AD  26094.59165366  .00027040  00000+0  14008-3 0  9991
2 68194  53.1566 151.8286 0000838 119.5347 240.5759 15.80876360  4578
STARLINK-37058          
1 68195U 26050AE  26094.65187715  .00197921  00000+0  98139-3 0  9994
2 68195  53.1564 151.4913 0001612  59.0267 301.0914 15.80919158  3028
YAOGAN-50 02            
1 68196U 26051A   26094.64417222  .00000314  00000+0  11500-3 0  9990
2 68196 141.9859 332.4337 0000723 270.7167  89.3470 13.83260964  2809
CZ-6A R/B               
1 68197U 26051B   26094.56493144  .00001411  00000+0  19495-3 0  9999
2 68197 142.0305 343.2172 0187336 237.5255 120.7239 14.56385219  2939
2026-052A               
1 68198U 26052A   26094.83395411  .00011578  00000+0  71299-3 0  9994
2 68198  97.5352 170.7672 0013674 194.2255 165.8591 15.10070816  2976
YUXING-3 06             
1 68199U 26052B   26094.63317490  .00008746  00000+0  53803-3 0  9998
2 68199  97.5354 170.5736 0012660 196.0638 164.0191 15.10196522  2944
2026-052C               
1 68200U 26052C   26094.83029759  .00007864  00000+0  48277-3 0  9990
2 68200  97.5349 170.7717 0012399 197.8051 162.2746 15.10311710  2965
2026-052D               
1 68201U 26052D   26094.82782230  .00011441  00000+0  69545-3 0  9997
2 68201  97.5355 170.7730 0011621 194.3403 165.7498 15.10567882  2974
2026-052E               
1 68202U 26052E   26094.49659368  .00013241  00000+0  80433-3 0  9995
2 68202  97.5348 170.4486 0011250 200.0561 160.0228 15.10559593  2924
2026-052F               
1 68203U 26052F   26094.89074122  .00009913  00000+0  59914-3 0  9990
2 68203  97.5349 170.8477 0010615 190.6352 169.4655 15.10824582  2982
2026-052G               
1 68204U 26052G   26094.89011444  .00011671  00000+0  70367-3 0  9998
2 68204  97.5360 170.8440 0010273 193.0800 167.0165 15.10872807  2984
KZ-11 R/B               
1 68205U 26052H   26094.85923137  .00029153  20355-5  43780-3 0  9990
2 68205  97.3398 169.5033 0543760 309.1345  46.2704 14.67677490  2892
2026-052J               
1 68206U 26052J   26094.85008984  .00091243  32019-5  13268-2 0  9991
2 68206  97.3394 169.5134 0537489 309.1236  46.3336 14.69364802  2895
STARLINK-36986          
1 68207U 26053A   26094.87697539  .00111377  00000+0  57582-3 0  9993
2 68207  97.2842 330.4686 0001323  85.1605 274.9814 15.80777470  4196
STARLINK-37009          
1 68208U 26053B   26094.81290520  .00162974  00000+0  83359-3 0  9997
2 68208  97.2842 330.4021 0001554  89.3827 270.7619 15.80873193  4183
STARLINK-36948          
1 68209U 26053C   26094.81216717  .00075563  00000+0  39237-3 0  9997
2 68209  97.2838 330.4039 0001790 121.7319 238.4124 15.80784464  4169
STARLINK-37119          
1 68210U 26053D   26094.81141515  .00094208  00000+0  48783-3 0  9995
2 68210  97.2844 330.4038 0001348  99.3319 260.8101 15.80791060  4182
STARLINK-37120          
1 68211U 26053E   26094.81066426  .00031142  00000+0  16311-3 0  9993
2 68211  97.2839 330.4039 0001309  77.0201 283.1213 15.80766132  4160
STARLINK-37117          
1 68212U 26053F   26094.80990906  .00018003  00000+0  94700-4 0  9992
2 68212  97.2828 330.4061 0002542 130.6032 229.5458 15.80774005  4187
STARLINK-37116          
1 68213U 26053G   26094.80916361  .00123719  00000+0  63813-3 0  9997
2 68213  97.2837 330.4073 0002296 113.1160 247.0350 15.80793344  4188
STARLINK-35854          
1 68214U 26053H   26094.87171837  .00069713  00000+0  36302-3 0  9992
2 68214  97.2838 330.4739 0001532 122.7892 237.3524 15.80740732  4176
STARLINK-36272          
1 68215U 26053J   26094.83335647 -.02009737  00000+0 -19858-1 0  9999
2 68215  97.2840 330.4103 0001543  86.9849 358.8023 15.68959311  4107
STARLINK-37014          
1 68216U 26053K   26094.80690618  .00142546  00000+0  73297-3 0  9990
2 68216  97.2836 330.4094 0002187 134.0496 226.0952 15.80810528  4185
STARLINK-37011          
1 68217U 26053L   26094.80615796 -.00029622  00000+0 -15498-3 0  9995
2 68217  97.2834 330.4110 0001925  70.7534 289.3942 15.80735564  4188
STARLINK-37108          
1 68218U 26053M   26094.80540414  .00052081  00000+0  27160-3 0  9992
2 68218  97.2836 330.4123 0001426 103.7289 256.4138 15.80768730  4188
